OBJECT_NAME,OBJECT_ID,EPOCH,MEAN_MOTION,ECCENTRICITY,INCLINATION,RA_OF_ASC_NODE,ARG_OF_PERICENTER,MEAN_ANOMALY,EPHEMERIS_TYPE,CLASSIFICATION_TYPE,NORAD_CAT_ID,ELEMENT_SET_NO,REV_AT_EPOCH,BSTAR,MEAN_MOTION_DOT,MEAN_MOTION_DDOT
ONEWEB-0534,2023-029B,2026-07-17T10:57:30.250368,13.20771336,.00020962,87.9175,268.4359,101.0048,259.1322,0,U,55797,999,16514,-.36018374E-3,-.133E-5,0
ONEWEB-0556,2023-029C,2026-07-17T14:45:24.189120,13.20769895,.00014269,87.9173,268.4032,116.3528,243.7752,0,U,55798,999,16516,.83974241E-4,.47E-6,0
ONEWEB-0562,2023-029D,2026-07-17T14:26:00.314592,13.20771875,.00012877,87.9171,268.3867,86.3200,273.8080,0,U,55799,999,16516,.61556964E-4,.38E-6,0
ONEWEB-0563,2023-029E,2026-07-17T03:24:11.420640,13.20770486,.00021724,87.9173,268.5083,104.2869,255.8505,0,U,55800,999,16509,.22152244E-3,.103E-5,0
ONEWEB-0564,2023-029F,2026-07-17T10:30:51.765696,13.20772928,.00017446,87.9175,268.4233,91.8754,268.2579,0,U,55801,999,16514,.12504559E-3,.64E-6,0
ONEWEB-0638,2023-029G,2026-07-17T05:32:59.277696,13.14504433,.00014768,87.8958,283.7630,105.0547,255.0746,0,U,55802,999,16334,.64894598E-3,.253E-5,0
ONEWEB-0639,2023-029H,2026-07-17T04:58:03.344160,13.19726840,.00026911,87.9187,298.9981,118.3792,241.7613,0,U,55803,999,16286,.13621657E-3,.67E-6,0
ONEWEB-0640,2023-029J,2026-07-16T18:49:02.215488,13.14502179,.00016375,87.8960,283.8432,118.1769,241.9527,0,U,55804,999,16330,-.49042313E-4,-.5E-7,0
ONEWEB-0641,2023-029K,2026-07-16T19:45:22.879008,13.19718229,.00020586,87.9193,299.0658,103.6810,256.4552,0,U,55805,999,16282,-.19893574E-2,-.783E-5,0
ONEWEB-0642,2023-029L,2026-07-17T06:33:36.617472,13.19726558,.00026901,87.9188,298.9859,110.4334,249.7088,0,U,55806,999,16287,.39651285E-4,.29E-6,0
ONEWEB-0643,2023-029M,2026-07-17T05:03:18.807840,13.14502711,.00026926,87.8955,283.7455,105.5176,254.6251,0,U,55807,999,16333,.25558803E-3,.108E-5,0
ONEWEB-0644,2023-029N,2026-07-16T19:31:44.004000,13.19726137,.00023077,87.9183,299.0786,105.5106,254.6282,0,U,55808,999,16281,-.58234395E-4,-.1E-6,0
ONEWEB-0645,2023-029P,2026-07-17T12:26:09.555360,13.19726017,.00021106,87.9187,298.9350,114.5987,245.5366,0,U,55809,999,16290,.13297199E-3,.66E-6,0
ONEWEB-0646,2023-029Q,2026-07-17T12:51:09.757440,13.19727476,.00022927,87.9186,298.9323,104.1967,255.9420,0,U,55810,999,16289,.22762905E-3,.104E-5,0
ONEWEB-0648,2023-029R,2026-07-17T15:15:17.316576,13.14503297,.00024886,87.8970,283.6369,122.0233,238.1138,0,U,55811,999,16339,-.30834745E-3,-.102E-5,0
ONEWEB-0649,2023-029S,2026-07-17T13:27:32.807232,13.19726866,.00020954,87.9187,298.9252,108.6612,251.4748,0,U,55812,999,16293,.67007834E-4,.4E-6,0
ONEWEB-0650,2023-029T,2026-07-17T13:20:43.913184,13.19726263,.00025443,87.9184,298.9284,110.4363,249.7043,0,U,55813,999,16290,.13271246E-3,.66E-6,0
ONEWEB-0652,2023-029U,2026-07-17T03:50:14.083008,13.14502774,.00019917,87.8968,283.7387,94.9032,265.2325,0,U,55814,999,16330,.57886734E-3,.227E-5,0
ONEWEB-0653,2023-029V,2026-07-17T05:17:00.318912,13.14502346,.00019452,87.8968,283.7251,99.6578,260.4771,0,U,55815,999,16334,.6293585E-3,.246E-5,0
ONEWEB-0654,2023-029W,2026-07-17T12:28:35.398560,13.14502751,.00017946,87.8966,283.6612,91.7687,268.3649,0,U,55816,999,16340,.37661105E-3,.152E-5,0
ONEWEB-0656,2023-029X,2026-07-17T03:04:48.011808,13.20770342,.00018386,87.9187,268.4643,87.2581,272.8763,0,U,55817,999,16510,.13115048E-3,.66E-6,0
ONEWEB-0657,2023-029Y,2026-07-17T13:13:56.863776,13.19727071,.00021521,87.9183,298.9279,78.8866,281.2509,0,U,55818,999,16291,.1726417E-3,.82E-6,0
ONEWEB-0658,2023-029Z,2026-07-17T13:07:06.132864,13.19726336,.00023902,87.9193,298.9071,106.4807,253.6588,0,U,55819,999,16292,.15938609E-3,.77E-6,0
ONEWEB-0660,2023-029AA,2026-07-17T11:56:37.081824,13.14502362,.00020012,87.8975,283.6617,109.0536,251.0810,0,U,55820,999,16338,-.46498157E-3,-.16E-5,0
ONEWEB-0661,2023-029AB,2026-07-17T12:46:52.189536,13.14503307,.00018493,87.8957,283.6944,107.3446,252.7886,0,U,55821,999,16337,.6262283E-3,.245E-5,0
ONEWEB-0662,2023-029AC,2026-07-17T04:29:03.488352,13.14502309,.00019599,87.8959,283.7686,107.9842,252.1502,0,U,55822,999,16337,-.53830892E-3,-.187E-5,0
ONEWEB-0663,2023-029AD,2026-07-17T14:44:35.950272,13.20871507,.00022212,87.9185,268.4384,109.6423,250.4950,0,U,55823,999,16516,.94565533E-4,.51E-6,0
ONEWEB-0664,2023-029AE,2026-07-17T04:34:30.690336,13.20772058,.00016159,87.9173,268.5006,103.4441,256.6873,0,U,55824,999,16510,.13803585E-3,.69E-6,0
ONEWEB-0665,2023-029AF,2026-07-17T05:23:52.002816,13.14502643,.00020623,87.8958,283.7365,109.1277,251.0076,0,U,55825,999,16335,.7640257E-3,.296E-5,0
ONEWEB-0666,2023-029AG,2026-07-17T15:19:19.310016,13.20773279,.00024393,87.9173,268.4017,83.0148,277.1263,0,U,55826,999,16517,-.17564276E-3,-.58E-6,0
